KUIPER-00074            
1 64821U 25151F   25358.00231292 -.00005876  00000+0 -74075-3 0  9990
2 64821  51.9009 265.2826 0014117  23.4147 336.7456 14.79925725 24239
KUIPER-00075            
1 64822U 25151G   25358.84601463  .00037739  00000+0  93693-3 0  9992
2 64822  51.8730 225.3816 0002950  36.0130 324.1056 15.39971993 24861
KUIPER-00076            
1 64823U 25151H   25358.13464734 -.00008501  00000+0 -10866-2 0  9990
2 64823  51.9019 267.1890 0005813  24.4861 335.6376 14.79949959 24224
KUIPER-00077            
1 64824U 25151J   25358.12930060  .00005483  00000+0  74705-3 0  9997
2 64824  51.9003 272.2194 0006235 345.6074  14.4710 14.79968121 24153
KUIPER-00078            
1 64825U 25151K   25358.77348061 -.00007227  00000+0 -91976-3 0  9992
2 64825  51.9016 266.8638 0008769  45.5523 314.6156 14.79899738 24289
KUIPER-00079            
1 64826U 25151L   25358.05909849  .00005185  00000+0  70807-3 0  9990
2 64826  51.8992 275.0087 0011941 352.9508   7.1285 14.79936355 25304
KUIPER-00080            
1 64827U 25151M   25358.76805616 -.00001190  00000+0 -12689-3 0  9994
2 64827  51.8999 271.8783 0006295  18.4465 341.6724 14.79931956 24216
KUIPER-00082            
1 64828U 25151N   25358.00492123  .00005120  00000+0  69977-3 0  9994
2 64828  51.9016 262.7686 0005544  42.2462 317.8927 14.79952572 24270
KUIPER-00083            
1 64829U 25151P   25358.13182985 -.00004099  00000+0 -50835-3 0  9990
2 64829  51.9032 269.7016 0011365 354.9615   5.1231 14.79904154 25374
KUIPER-00084            
1 64830U 25151Q   25358.79545385 -.00007999  00000+0 -10187-2 0  9998
2 64830  51.9004 276.7422 0011107 331.0852  28.9494 14.79986202 24149
KUIPER-00085            
1 64831U 25151R   25358.17382903  .00005606  00000+0  76268-3 0  9990
2 64831  51.9031 262.0383 0007734  13.6877 346.4293 14.79988267 24299
KUIPER-00086            
1 64832U 25151S   25358.77078407  .00005153  00000+0  70413-3 0  9991
2 64832  51.9020 269.3835 0010920 353.9240   6.1589 14.79928165 24249
KUIPER-00087            
1 64833U 25151T   25357.43868081  .00004680  00000+0  64814-3 0  9991
2 64833  51.8981 257.7612 0001226 136.3532 223.7527 14.79561165 24281
KUIPER-00089            
1 64834U 25151U   25358.10894838  .00001899  00000+0  27803-3 0  9992
2 64834  51.9010 259.8057 0002442  85.5735 274.5506 14.79937034 24321
KUIPER-00090            
1 64835U 25151V   25358.06202982  .00004238  00000+0  63119-3 0  9991
2 64835  51.8974 251.9935 0004591  97.6396 262.5087 14.76625232 24425
KUIPER-00091            
1 64836U 25151W   25358.11172281  .00004601  00000+0  63172-3 0  9999
2 64836  51.8990 257.3002 0008641  47.6654 312.5039 14.79951217 24354
KUIPER-00092            
1 64837U 25151X   25358.03604526 -.00000328  00000+0 -13949-4 0  9995
2 64837  51.9008 265.1328 0003213  22.3777 337.7325 14.79947717 25459
KUIPER-00093            
1 64838U 25151Y   25358.83334491  .00004203  00000+0  58337-3 0  9998
2 64838  51.8993 264.0952 0005755  31.3873 272.7665 14.79689254  3813
KUIPER-00094            
1 64839U 25151Z   25358.07982052  .00008744  00000+0  62903-3 0  9995
2 64839  51.8896 250.1725 0004485  32.6873 327.4377 15.04925085 24458
KUIPER-00081            
1 65132U 25171A   25358.53910993  .00007572  00000+0  77884-3 0  9992
2 65132  51.8981 120.8245 0001901 271.6994  88.3755 14.91152073 21903
KUIPER-00088            
1 65133U 25171B   25358.78437380  .00002947  00000+0  44702-3 0  9998
2 65133  51.8978 137.2167 0007769 228.6905 131.3387 14.76753064 21693
KUIPER-00095            
1 65134U 25171C   25358.73111299  .00006943  00000+0  63674-3 0  9991
2 65134  51.8918 121.0506 0004727 232.4709 127.5831 14.95849602 21913
KUIPER-00096            
1 65135U 25171D   25358.11141987  .00004331  00000+0  59585-3 0  9996
2 65135  51.8984 132.2921 0010301 255.1972 104.7849 14.79982816 21701
KUIPER-00097            
1 65136U 25171E   25358.58142128 -.00005232  00000+0 -65747-3 0  9996
2 65136  51.9009 132.8295 0009561 261.0033  98.9848 14.79903219 21726
KUIPER-00098            
1 65137U 25171F   25358.64629979  .00006169  00000+0  83615-3 0  9990
2 65137  51.8990 134.9289 0007126 242.1912 117.8329 14.79992217 21059
KUIPER-00099            
1 65138U 25171G   25358.62337102  .00003589  00000+0  49997-3 0  9991
2 65138  51.9021 124.9970 0000975 124.4011 235.7044 14.79902078 21846
KUIPER-00100            
1 65139U 25171H   25358.83334491  .00012048  00000+0  15326-2 0  9991
2 65139  51.8995 121.4718 0000435  87.9285 163.3382 14.81919109  5619
KUIPER-00102            
1 65140U 25171J   25358.79125845  .00076406  00000+0  10228-1 0  9992
2 65140  51.8978 124.2801 0001528 103.0404 257.0729 14.78718901 21867
KUIPER-00103            
1 65141U 25171K   25358.67205162  .00003853  00000+0  53426-3 0  9996
2 65141  51.8972 142.3059 0005530 235.9125 124.1313 14.79929503 21608
KUIPER-00104            
1 65142U 25171L   25358.74369416  .00004079  00000+0  60884-3 0  9995
2 65142  51.9002 128.6376 0003295 290.7736  69.2872 14.76620881 21801
KUIPER-00105            
1 65143U 25171M   25358.64357280 -.00000593  00000+0 -48246-4 0  9999
2 65143  51.8993 137.5047 0012045 210.9719 149.0534 14.79952776 21673
KUIPER-00106            
1 65144U 25171N   25358.60660970  .00006924  00000+0  62296-3 0  9991
2 65144  51.8920 136.0416 0009124 207.2588 152.7903 14.96597362 21693
KUIPER-00107            
1 65145U 25171P   25358.83334491  .00024694  00000+0  28964-2 0  9990
2 65145  51.8991 119.3078 0007255 258.3224 192.1380 14.84802868  5277
KUIPER-00108            
1 65146U 25171Q   25358.74991690  .00004842  00000+0  66233-3 0  9996
2 65146  51.9012 131.9700 0008105 222.5993 137.4341 14.80014481 21769
KUIPER-00109            
1 65147U 25171R   25358.78946619  .00001452  00000+0  21976-3 0  9991
2 65147  51.9014 126.7427 0011773 238.5061 121.4751 14.79897294 21833
KUIPER-00110            
1 65148U 25171S   25358.67470888 -.00014939  00000+0 -19314-2 0  9998
2 65148  51.9019 139.8561 0001765 252.3223 107.7547 14.80007669 21636
KUIPER-00111            
1 65149U 25171T   25358.70299985  .00003758  00000+0  52122-3 0  9990
2 65149  51.8964 144.6571 0008431 223.2397 136.7904 14.79966481 21572
KUIPER-00112            
1 65150U 25171U   25358.62053834  .00002483  00000+0  35456-3 0  9999
2 65150  51.9017 127.5449 0008550 273.0429  86.9555 14.79936060 21803
KUIPER-00114            
1 65151U 25171V   25358.83526606  .00003549  00000+0  49398-3 0  9999
2 65151  51.8986 146.6092 0006128 207.6743 152.3893 14.79968244 21559
KUIPER-00115            
1 65152U 25171W   25358.84348558  .00004341  00000+0  59757-3 0  9990
2 65152  51.9001 139.0565 0009432 235.4381 124.5692 14.79953956 21662
KUIPER-00116            
1 65153U 25171X   25358.80436023  .00003548  00000+0  49411-3 0  9996
2 65153  51.8986 144.2723 0009777 200.0031 160.0550 14.79927692 21587
KUIPER-00118            
1 65154U 25171Y   25358.12641425  .00003496  00000+0  48737-3 0  9998
2 65154  51.8983 149.7260 0001329 174.5225 185.5752 14.79927879 21455
KUIPER-00119            
1 65155U 25171Z   25358.68007205  .00004351  00000+0  59918-3 0  9996
2 65155  51.9000 134.8606 0007991 229.7140 130.3124 14.79943836 21706
KUIPER-00120            
1 65762U 25217A   25358.83334491 -.00001827  00000+0 -21916-3 0  9992
2 65762  51.8994  22.8546 0003293  54.4299 141.4435 14.78337872  5042
KUIPER-00132            
1 65763U 25217B   25358.72701756  .00038579  00000+0  10296-2 0  9993
2 65763  51.8626   6.7529 0007813  57.1318 303.0420 15.37721616 13881
KUIPER-00133            
1 65764U 25217C   25358.27539086  .00003483  00000+0  48555-3 0  9995
2 65764  51.9039  26.5784 0011748  69.6585 290.5639 14.79932205 13571
KUIPER-00139            
1 65765U 25217D   25358.25900943  .00009292  00000+0  72402-3 0  9990
2 65765  51.8867  19.2120 0008711  59.9108 300.2726 15.01801370 13673
KUIPER-00142            
1 65766U 25217E   25358.83334491 -.00532921  00000+0 -37592-1 0  9995
2 65766  51.8929   8.4818 0003030  95.6659 173.1718 15.06856111  4197
KUIPER-00145            
1 65767U 25217F   25358.83334491  .00013285  00000+0  10791-2 0  9994
2 65767  51.9250  10.2688 0006747  54.6340 304.3658 14.99866122  5884
KUIPER-00147            
1 65768U 25217G   25358.05449879  .00005926  00000+0  52441-3 0  9998
2 65768  51.8922  16.1972 0011256  64.2355 295.9775 14.97483248 13690
KUIPER-00148            
1 65769U 25217H   25358.83334491  .00023465  00000+0  14977-2 0  9997
2 65769  51.8791  11.4491 0010117  85.1498 141.0964 15.08526428  5271
KUIPER-00150            
1 65770U 25217J   25356.11572743  .00090085  00000+0  12127-1 0  9998
2 65770  51.9032  33.6146 0001868 273.9789  86.0959 14.78377044 13284
KUIPER-00151            
1 65771U 25217K   25358.83334491  .00012812  00000+0  15599-2 0  9995
2 65771  51.9018  14.2445 0003359  88.2117 238.6919 14.83694417  4727
KUIPER-00152            
1 65772U 25217L   25358.83334491 -.01032427  00000+0 -47254-1 0  9995
2 65772  51.8828   6.0781 0003105  43.8143 314.1337 15.22924402  4417
KUIPER-00153            
1 65773U 25217M   25358.00616896  .00014114  00000+0  84058-3 0  9992
2 65773  51.8785  19.7698 0013489  59.2384 300.9918 15.11373640 13645
KUIPER-00155            
1 65774U 25217N   25356.44879056  .00040751  00000+0  10877-2 0  9991
2 65774  51.8674  17.7562 0008515  53.8047 306.3726 15.37685901 13530
KUIPER-00156            
1 65775U 25217P   25358.83334491 -.00576805  00000+0 -17020-1 0  9998
2 65775  51.8725   5.3395 0003803  46.0251 294.2151 15.36782077  4731
KUIPER-00158            
1 65776U 25217Q   25358.83334491 -.00011447  00000+0 -14105-2 0  9997
2 65776  51.8978  16.6405 0000738  73.7894 141.4556 14.81794013  5200
KUIPER-00163            
1 65777U 25217R   25358.78276043  .00004181  00000+0  59851-3 0  9993
2 65777  51.8978  19.2904 0001238  46.9915 313.1150 14.78370070 13718
